{
  "type": "FeatureCollection",
  "features": [
    {
      "type": "Feature",
      "properties": {
        "norad_id": 66442,
        "name": "STARLINK-34724",
        "group": "last-30-days",
        "lat": -35.83625052587314,
        "lon": -35.172612394741485,
        "alt_km": 417.4345931706466,
        "timestamp": "2025-12-04T17:48:38.962753+00:00",
        "meta_object_name": "STARLINK-34724",
        "meta_object_id": "2025-259W",
        "meta_epoch": "2025-12-04T08:00:01.999872",
        "meta_mean_motion": 15.50585904,
        "meta_eccentricity": 0.0001357,
        "meta_inclination": 43.0004,
        "meta_ra_of_asc_node": 96.4145,
        "meta_arg_of_pericenter": 268.0262,
        "meta_mean_anomaly": 206.6747,
        "meta_ephemeris_type": 0,
        "meta_classification_type": "U",
        "meta_norad_cat_id": 66442,
        "meta_element_set_no": 999,
        "meta_rev_at_epoch": 492,
        "meta_bstar": -0.0012224581,
        "meta_mean_motion_dot": -0.00071423,
        "meta_mean_motion_ddot": 0,
        "tle_line1": "1 66442U 25259W   25338.33335648 -.00071423  00000+0 -12225-2 0  9993",
        "tle_line2": "2 66442  43.0004  96.4145 0001357 268.0262 206.6747 15.50585904  4925"
      },
      "geometry": {
        "type": "Point",
        "coordinates": [
          -35.172612394741485,
          -35.83625052587314
        ]
      }
    },
    {
      "type": "Feature",
      "properties": {
        "norad_id": 66443,
        "name": "STARLINK-35219",
        "group": "last-30-days",
        "lat": -36.64360221359411,
        "lon": -33.01991712823583,
        "alt_km": 417.49116717376273,
        "timestamp": "2025-12-04T17:48:38.962762+00:00",
        "meta_object_name": "STARLINK-35219",
        "meta_object_id": "2025-259X",
        "meta_epoch": "2025-12-04T08:00:01.999872",
        "meta_mean_motion": 15.5058622,
        "meta_eccentricity": 0.00012516,
        "meta_inclination": 43.0005,
        "meta_ra_of_asc_node": 96.4096,
        "meta_arg_of_pericenter": 262.901,
        "meta_mean_anomaly": 213.7193,
        "meta_ephemeris_type": 0,
        "meta_classification_type": "U",
        "meta_norad_cat_id": 66443,
        "meta_element_set_no": 999,
        "meta_rev_at_epoch": 482,
        "meta_bstar": -0.001255388,
        "meta_mean_motion_dot": -0.00073321,
        "meta_mean_motion_ddot": 0,
        "tle_line1": "1 66443U 25259X   25338.33335648 -.00073321  00000+0 -12554-2 0  9998",
        "tle_line2": "2 66443  43.0005  96.4096 0001251 262.9010 213.7193 15.50586220  4824"
      },
      "geometry": {
        "type": "Point",
        "coordinates": [
          -33.01991712823583,
          -36.64360221359411
        ]
      }
    },
    {
      "type": "Feature",
      "properties": {
        "norad_id": 66444,
        "name": "STARLINK-35360",
        "group": "last-30-days",
        "lat": -38.81609855354945,
        "lon": -26.30709475892942,
        "alt_km": 417.4658252675872,
        "timestamp": "2025-12-04T17:48:38.962772+00:00",
        "meta_object_name": "STARLINK-35360",
        "meta_object_id": "2025-259Y",
        "meta_epoch": "2025-12-04T08:00:01.999872",
        "meta_mean_motion": 15.50592041,
        "meta_eccentricity": 0.00014128,
        "meta_inclination": 43.0005,
        "meta_ra_of_asc_node": 96.3946,
        "meta_arg_of_pericenter": 263.1759,
        "meta_mean_anomaly": 219.1942,
        "meta_ephemeris_type": 0,
        "meta_classification_type": "U",
        "meta_norad_cat_id": 66444,
        "meta_element_set_no": 999,
        "meta_rev_at_epoch": 492,
        "meta_bstar": -0.0014061657,
        "meta_mean_motion_dot": -0.00082014,
        "meta_mean_motion_ddot": 0,
        "tle_line1": "1 66444U 25259Y   25338.33335648 -.00082014  00000+0 -14062-2 0  9994",
        "tle_line2": "2 66444  43.0005  96.3946 0001412 263.1759 219.1942 15.50592041  4921"
      },
      "geometry": {
        "type": "Point",
        "coordinates": [
          -26.30709475892942,
          -38.81609855354945
        ]
      }
    },
    {
      "type": "Feature",
      "properties": {
        "norad_id": 66445,
        "name": "STARLINK-34698",
        "group": "last-30-days",
        "lat": -37.40894189741916,
        "lon": -30.829938646190172,
        "alt_km": 417.3346114671158,
        "timestamp": "2025-12-04T17:48:38.962782+00:00",
        "meta_object_name": "STARLINK-34698",
        "meta_object_id": "2025-259Z",
        "meta_epoch": "2025-12-04T08:00:01.999872",
        "meta_mean_motion": 15.50593478,
        "meta_eccentricity": 0.00014809,
        "meta_inclination": 43.0005,
        "meta_ra_of_asc_node": 96.404,
        "meta_arg_of_pericenter": 258.8727,
        "meta_mean_anomaly": 219.6534,
        "meta_ephemeris_type": 0,
        "meta_classification_type": "U",
        "meta_norad_cat_id": 66445,
        "meta_element_set_no": 999,
        "meta_rev_at_epoch": 482,
        "meta_bstar": -0.0013063054,
        "meta_mean_motion_dot": -0.00076273,
        "meta_mean_motion_ddot": 0,
        "tle_line1": "1 66445U 25259Z   25338.33335648 -.00076273  00000+0 -13063-2 0  9995",
        "tle_line2": "2 66445  43.0005  96.4040 0001480 258.8727 219.6534 15.50593478  4825"
      },
      "geometry": {
        "type": "Point",
        "coordinates": [
          -30.829938646190172,
          -37.40894189741916
        ]
      }
    },
    {
      "type": "Feature",
      "properties": {
        "norad_id": 66446,
        "name": "STARLINK-34986",
        "group": "last-30-days",
        "lat": -38.133484497838744,
        "lon": -28.59301476843471,
        "alt_km": 417.2506352026612,
        "timestamp": "2025-12-04T17:48:38.962794+00:00",
        "meta_object_name": "STARLINK-34986",
        "meta_object_id": "2025-259AA",
        "meta_epoch": "2025-12-04T08:00:01.999872",
        "meta_mean_motion": 15.50581927,
        "meta_eccentricity": 0.0001621,
        "meta_inclination": 43.0003,
        "meta_ra_of_asc_node": 96.3986,
        "meta_arg_of_pericenter": 255.6221,
        "meta_mean_anomaly": 224.8282,
        "meta_ephemeris_type": 0,
        "meta_classification_type": "U",
        "meta_norad_cat_id": 66446,
        "meta_element_set_no": 999,
        "meta_rev_at_epoch": 492,
        "meta_bstar": -0.0010461988,
        "meta_mean_motion_dot": -0.00061246,
        "meta_mean_motion_ddot": 0,
        "tle_line1": "1 66446U 25259AA  25338.33335648 -.00061246  00000+0 -10462-2 0  9990",
        "tle_line2": "2 66446  43.0003  96.3986 0001621 255.6221 224.8282 15.50581927  4928"
      },
      "geometry": {
        "type": "Point",
        "coordinates": [
          -28.59301476843471,
          -38.133484497838744
        ]
      }
    },
    {
      "type": "Feature",
      "properties": {
        "norad_id": 66447,
        "name": "STARLINK-34851",
        "group": "last-30-days",
        "lat": -39.450490730161405,
        "lon": -23.989086440053413,
        "alt_km": 417.56074445202194,
        "timestamp": "2025-12-04T17:48:38.962807+00:00",
        "meta_object_name": "STARLINK-34851",
        "meta_object_id": "2025-259AB",
        "meta_epoch": "2025-12-04T08:00:01.999872",
        "meta_mean_motion": 15.50571494,
        "meta_eccentricity": 0.00012262,
        "meta_inclination": 43.0005,
        "meta_ra_of_asc_node": 96.3894,
        "meta_arg_of_pericenter": 258.5039,
        "meta_mean_anomaly": 225.7841,
        "meta_ephemeris_type": 0,
        "meta_classification_type": "U",
        "meta_norad_cat_id": 66447,
        "meta_element_set_no": 999,
        "meta_rev_at_epoch": 482,
        "meta_bstar": -0.00074500544,
        "meta_mean_motion_dot": -0.00043791,
        "meta_mean_motion_ddot": 0,
        "tle_line1": "1 66447U 25259AB  25338.33335648 -.00043791  00000+0 -74501-3 0  9991",
        "tle_line2": "2 66447  43.0005  96.3894 0001226 258.5039 225.7841 15.50571494  4827"
      },
      "geometry": {
        "type": "Point",
        "coordinates": [
          -23.989086440053413,
          -39.450490730161405
        ]
      }
    },
    {
      "type": "Feature",
      "properties": {
        "norad_id": 66448,
        "name": "STARLINK-35355",
        "group": "last-30-days",
        "lat": -40.040193861520905,
        "lon": -21.61889911329774,
        "alt_km": 417.55355122084075,
        "timestamp": "2025-12-04T17:48:38.962817+00:00",
        "meta_object_name": "STARLINK-35355",
        "meta_object_id": "2025-259AC",
        "meta_epoch": "2025-12-04T08:00:01.999872",
        "meta_mean_motion": 15.505936,
        "meta_eccentricity": 0.00013644,
        "meta_inclination": 43.0004,
        "meta_ra_of_asc_node": 96.3849,
        "meta_arg_of_pericenter": 264.8846,
        "meta_mean_anomaly": 221.3216,
        "meta_ephemeris_type": 0,
        "meta_classification_type": "U",
        "meta_norad_cat_id": 66448,
        "meta_element_set_no": 999,
        "meta_rev_at_epoch": 492,
        "meta_bstar": -0.0015311088,
        "meta_mean_motion_dot": -0.00089194,
        "meta_mean_motion_ddot": 0,
        "tle_line1": "1 66448U 25259AC  25338.33335648 -.00089194  00000+0 -15311-2 0  9992",
        "tle_line2": "2 66448  43.0004  96.3849 0001364 264.8846 221.3216 15.50593600  4928"
      },
      "geometry": {
        "type": "Point",
        "coordinates": [
          -21.61889911329774,
          -40.040193861520905
        ]
      }
    }
  ]
}